ORBCOMM FM33            
1 25983U 99065D   24225.88746189  .00010094  00000+0  33393-2 0  9998
2 25983  45.0300  22.8223 0008128 300.5701  59.4345 14.38114603291659
ORBCOMM FM36            
1 25984U 99065E   24225.85599059  .00010807  00000+0  37249-2 0  9994
2 25984  45.0389 110.0719 0002815 180.3730 179.7116 14.36046909290067
ORBCOMM FM35            
1 25985U 99065F   24225.85976504  .00007795  00000+0  27310-2 0  9999
2 25985  45.0389 113.0489 0003360 304.9306  55.1226 14.35497996290451
ORBCOMM FM38            
1 33060U 08031A   24225.81592484  .00017702  00000+0  24351-2 0  9993
2 33060  48.4420 341.8039 0005111 167.9527 192.1511 14.78239312869079
ORBCOMM FM41            
1 33061U 08031B   24225.77283200  .00012466  00000+0  17364-2 0  9990
2 33061  48.4454 348.8539 0004119 154.5043 359.1231 14.77953573869009
ORBCOMM FM29            
1 33062U 08031C   24225.76523307  .00014383  00000+0  20001-2 0  9997
2 33062  48.4409 356.9226 0005939 149.1057   7.1749 14.77911618868477
ORBCOMM FM39            
1 33063U 08031D   24225.83549480  .00015282  00000+0  21775-2 0  9994
2 33063  48.4418  17.8488 0006723 120.7612 239.3965 14.76827534868173
