<?xml version="1.0" encoding="UTF-8"?>
<ndm xmlns:xsi="http://www.w3.org/2001/XMLSchema-instance" xsi:noNamespaceSchemaLocation="https://sanaregistry.org/r/ndmxml_unqualified/ndmxml-2.0.0-master-2.0.xsd">
<omm id="CCSDS_OMM_VERS" version="2.0">
<header><CREATION_DATE/><ORIGINATOR/></header><body><segment><metadata><OBJECT_NAME>ORBCOMM FM33</OBJECT_NAME><OBJECT_ID>1999-065D</OBJECT_ID><CENTER_NAME>EARTH</CENTER_NAME><REF_FRAME>TEME</REF_FRAME><TIME_SYSTEM>UTC</TIME_SYSTEM><MEAN_ELEMENT_THEORY>SGP4</MEAN_ELEMENT_THEORY></metadata><data><meanElements><EPOCH>2024-08-12T21:17:56.707296</EPOCH><MEAN_MOTION>14.38114603</MEAN_MOTION><ECCENTRICITY>.0008128</ECCENTRICITY><INCLINATION>45.0300</INCLINATION><RA_OF_ASC_NODE>22.8223</RA_OF_ASC_NODE><ARG_OF_PERICENTER>300.5701</ARG_OF_PERICENTER><MEAN_ANOMALY>59.4345</MEAN_ANOMALY></meanElements><tleParameters><EPHEMERIS_TYPE>0</EPHEMERIS_TYPE><CLASSIFICATION_TYPE>U</CLASSIFICATION_TYPE><NORAD_CAT_ID>25983</NORAD_CAT_ID><ELEMENT_SET_NO>999</ELEMENT_SET_NO><REV_AT_EPOCH>29165</REV_AT_EPOCH><BSTAR>.33393E-2</BSTAR><MEAN_MOTION_DOT>.10094E-3</MEAN_MOTION_DOT><MEAN_MOTION_DDOT>0</MEAN_MOTION_DDOT></tleParameters></data></segment></body></omm>
<omm id="CCSDS_OMM_VERS" version="2.0">
<header><CREATION_DATE/><ORIGINATOR/></header><body><segment><metadata><OBJECT_NAME>ORBCOMM FM36</OBJECT_NAME><OBJECT_ID>1999-065E</OBJECT_ID><CENTER_NAME>EARTH</CENTER_NAME><REF_FRAME>TEME</REF_FRAME><TIME_SYSTEM>UTC</TIME_SYSTEM><MEAN_ELEMENT_THEORY>SGP4</MEAN_ELEMENT_THEORY></metadata><data><meanElements><EPOCH>2024-08-12T20:32:37.586976</EPOCH><MEAN_MOTION>14.36046909</MEAN_MOTION><ECCENTRICITY>.0002815</ECCENTRICITY><INCLINATION>45.0389</INCLINATION><RA_OF_ASC_NODE>110.0719</RA_OF_ASC_NODE><ARG_OF_PERICENTER>180.3730</ARG_OF_PERICENTER><MEAN_ANOMALY>179.7116</MEAN_ANOMALY></meanElements><tleParameters><EPHEMERIS_TYPE>0</EPHEMERIS_TYPE><CLASSIFICATION_TYPE>U</CLASSIFICATION_TYPE><NORAD_CAT_ID>25984</NORAD_CAT_ID><ELEMENT_SET_NO>999</ELEMENT_SET_NO><REV_AT_EPOCH>29006</REV_AT_EPOCH><BSTAR>.37249E-2</BSTAR><MEAN_MOTION_DOT>.10807E-3</MEAN_MOTION_DOT><MEAN_MOTION_DDOT>0</MEAN_MOTION_DDOT></tleParameters></data></segment></body></omm>
<omm id="CCSDS_OMM_VERS" version="2.0">
<header><CREATION_DATE/><ORIGINATOR/></header><body><segment><metadata><OBJECT_NAME>ORBCOMM FM35</OBJECT_NAME><OBJECT_ID>1999-065F</OBJECT_ID><CENTER_NAME>EARTH</CENTER_NAME><REF_FRAME>TEME</REF_FRAME><TIME_SYSTEM>UTC</TIME_SYSTEM><MEAN_ELEMENT_THEORY>SGP4</MEAN_ELEMENT_THEORY></metadata><data><meanElements><EPOCH>2024-08-12T20:38:03.699456</EPOCH><MEAN_MOTION>14.35497996</MEAN_MOTION><ECCENTRICITY>.000336</ECCENTRICITY><INCLINATION>45.0389</INCLINATION><RA_OF_ASC_NODE>113.0489</RA_OF_ASC_NODE><ARG_OF_PERICENTER>304.9306</ARG_OF_PERICENTER><MEAN_ANOMALY>55.1226</MEAN_ANOMALY></meanElements><tleParameters><EPHEMERIS_TYPE>0</EPHEMERIS_TYPE><CLASSIFICATION_TYPE>U</CLASSIFICATION_TYPE><NORAD_CAT_ID>25985</NORAD_CAT_ID><ELEMENT_SET_NO>999</ELEMENT_SET_NO><REV_AT_EPOCH>29045</REV_AT_EPOCH><BSTAR>.2731E-2</BSTAR><MEAN_MOTION_DOT>.7795E-4</MEAN_MOTION_DOT><MEAN_MOTION_DDOT>0</MEAN_MOTION_DDOT></tleParameters></data></segment></body></omm>
<omm id="CCSDS_OMM_VERS" version="2.0">
<header><CREATION_DATE/><ORIGINATOR/></header><body><segment><metadata><OBJECT_NAME>ORBCOMM FM38</OBJECT_NAME><OBJECT_ID>2008-031A</OBJECT_ID><CENTER_NAME>EARTH</CENTER_NAME><REF_FRAME>TEME</REF_FRAME><TIME_SYSTEM>UTC</TIME_SYSTEM><MEAN_ELEMENT_THEORY>SGP4</MEAN_ELEMENT_THEORY></metadata><data><meanElements><EPOCH>2024-08-12T19:34:55.906176</EPOCH><MEAN_MOTION>14.78239312</MEAN_MOTION><ECCENTRICITY>.0005111</ECCENTRICITY><INCLINATION>48.4420</INCLINATION><RA_OF_ASC_NODE>341.8039</RA_OF_ASC_NODE><ARG_OF_PERICENTER>167.9527</ARG_OF_PERICENTER><MEAN_ANOMALY>192.1511</MEAN_ANOMALY></meanElements><tleParameters><EPHEMERIS_TYPE>0</EPHEMERIS_TYPE><CLASSIFICATION_TYPE>U</CLASSIFICATION_TYPE><NORAD_CAT_ID>33060</NORAD_CAT_ID><ELEMENT_SET_NO>999</ELEMENT_SET_NO><REV_AT_EPOCH>86907</REV_AT_EPOCH><BSTAR>.24351E-2</BSTAR><MEAN_MOTION_DOT>.17702E-3</MEAN_MOTION_DOT><MEAN_MOTION_DDOT>0</MEAN_MOTION_DDOT></tleParameters></data></segment></body></omm>
<omm id="CCSDS_OMM_VERS" version="2.0">
<header><CREATION_DATE/><ORIGINATOR/></header><body><segment><metadata><OBJECT_NAME>ORBCOMM FM41</OBJECT_NAME><OBJECT_ID>2008-031B</OBJECT_ID><CENTER_NAME>EARTH</CENTER_NAME><REF_FRAME>TEME</REF_FRAME><TIME_SYSTEM>UTC</TIME_SYSTEM><MEAN_ELEMENT_THEORY>SGP4</MEAN_ELEMENT_THEORY></metadata><data><meanElements><EPOCH>2024-08-12T18:32:52.684800</EPOCH><MEAN_MOTION>14.77953573</MEAN_MOTION><ECCENTRICITY>.0004119</ECCENTRICITY><INCLINATION>48.4454</INCLINATION><RA_OF_ASC_NODE>348.8539</RA_OF_ASC_NODE><ARG_OF_PERICENTER>154.5043</ARG_OF_PERICENTER><MEAN_ANOMALY>359.1231</MEAN_ANOMALY></meanElements><tleParameters><EPHEMERIS_TYPE>0</EPHEMERIS_TYPE><CLASSIFICATION_TYPE>U</CLASSIFICATION_TYPE><NORAD_CAT_ID>33061</NORAD_CAT_ID><ELEMENT_SET_NO>999</ELEMENT_SET_NO><REV_AT_EPOCH>86856</REV_AT_EPOCH><BSTAR>.17364E-2</BSTAR><MEAN_MOTION_DOT>.12466E-3</MEAN_MOTION_DOT><MEAN_MOTION_DDOT>0</MEAN_MOTION_DDOT></tleParameters></data></segment></body></omm>
<omm id="CCSDS_OMM_VERS" version="2.0">
<header><CREATION_DATE/><ORIGINATOR/></header><body><segment><metadata><OBJECT_NAME>ORBCOMM FM29</OBJECT_NAME><OBJECT_ID>2008-031C</OBJECT_ID><CENTER_NAME>EARTH</CENTER_NAME><REF_FRAME>TEME</REF_FRAME><TIME_SYSTEM>UTC</TIME_SYSTEM><MEAN_ELEMENT_THEORY>SGP4</MEAN_ELEMENT_THEORY></metadata><data><meanElements><EPOCH>2024-08-12T18:21:56.137248</EPOCH><MEAN_MOTION>14.77911618</MEAN_MOTION><ECCENTRICITY>.0005939</ECCENTRICITY><INCLINATION>48.4409</INCLINATION><RA_OF_ASC_NODE>356.9226</RA_OF_ASC_NODE><ARG_OF_PERICENTER>149.1057</ARG_OF_PERICENTER><MEAN_ANOMALY>7.1749</MEAN_ANOMALY></meanElements><tleParameters><EPHEMERIS_TYPE>0</EPHEMERIS_TYPE><CLASSIFICATION_TYPE>U</CLASSIFICATION_TYPE><NORAD_CAT_ID>33062</NORAD_CAT_ID><ELEMENT_SET_NO>999</ELEMENT_SET_NO><REV_AT_EPOCH>86847</REV_AT_EPOCH><BSTAR>.20001E-2</BSTAR><MEAN_MOTION_DOT>.14383E-3</MEAN_MOTION_DOT><MEAN_MOTION_DDOT>0</MEAN_MOTION_DDOT></tleParameters></data></segment></body></omm>
<omm id="CCSDS_OMM_VERS" version="2.0">
<header><CREATION_DATE/><ORIGINATOR/></header><body><segment><metadata><OBJECT_NAME>ORBCOMM FM39</OBJECT_NAME><OBJECT_ID>2008-031D</OBJECT_ID><CENTER_NAME>EARTH</CENTER_NAME><REF_FRAME>TEME</REF_FRAME><TIME_SYSTEM>UTC</TIME_SYSTEM><MEAN_ELEMENT_THEORY>SGP4</MEAN_ELEMENT_THEORY></metadata><data><meanElements><EPOCH>2024-08-12T20:03:06.750720</EPOCH><MEAN_MOTION>14.76827534</MEAN_MOTION><ECCENTRICITY>.0006723</ECCENTRICITY><INCLINATION>48.4418</INCLINATION><RA_OF_ASC_NODE>17.8488</RA_OF_ASC_NODE><ARG_OF_PERICENTER>120.7612</ARG_OF_PERICENTER><MEAN_ANOMALY>239.3965</MEAN_ANOMALY></meanElements><tleParameters><EPHEMERIS_TYPE>0</EPHEMERIS_TYPE><CLASSIFICATION_TYPE>U</CLASSIFICATION_TYPE><NORAD_CAT_ID>33063</NORAD_CAT_ID><ELEMENT_SET_NO>999</ELEMENT_SET_NO><REV_AT_EPOCH>86817</REV_AT_EPOCH><BSTAR>.21775E-2</BSTAR><MEAN_MOTION_DOT>.15282E-3</MEAN_MOTION_DOT><MEAN_MOTION_DDOT>0</MEAN_MOTION_DDOT></tleParameters></data></segment></body></omm>

</ndm>
